ONEWEB-0158             
1 48054U 21025N   25091.90769107 -.00000216  00000+0 -62633-3 0  9990
2 48054  87.8954  47.9027 0001960  85.5531 274.5822 13.13470001195708
ONEWEB-0157             
1 48055U 21025P   25091.85691135  .00000308  00000+0  80735-3 0  9993
2 48055  87.8950  47.9250 0001399  82.6121 277.5167 13.13469772195643
ONEWEB-0162             
1 48056U 21025Q   25092.13703661  .00047882  00000+0  13212+0 0  9994
2 48056  87.8911  47.8672 0001749  66.6064 293.5249 13.12574993195623
ONEWEB-0155             
1 48057U 21025R   25091.91615145 -.00000007  00000+0 -54775-4 0  9993
2 48057  87.8949  47.9193 0001793  75.5824 284.5504 13.13473845195759
ONEWEB-0149             
1 48058U 21025S   25091.93817039  .00000381  00000+0  10095-2 0  9990
2 48058  87.8950  47.9103 0001941  88.9373 271.1979 13.13470936195560
ONEWEB-0148             
1 48059U 21025T   25091.90092261 -.00000240  00000+0 -69232-3 0  9994
2 48059  87.8954  47.9373 0001762 103.2649 256.8677 13.13470732195684
ONEWEB-0160             
1 48060U 21025U   25091.61314490 -.00000015  00000+0 -74762-4 0  9990
2 48060  87.8953  47.9918 0002778  77.9476 282.1964 13.13473135195594
ONEWEB-0163             
1 48061U 21025V   25091.90261217 -.00000211  00000+0 -61238-3 0  9992
2 48061  87.8953  47.9178 0001635  81.3367 278.7947 13.13470140195755
